[{"OBJECT_NAME":"STARLINK-3916","OBJECT_ID":"2022-049AT","EPOCH":"2026-03-09T08:33:47.717856","MEAN_MOTION":15.08843925,"ECCENTRICITY":0.00014719,"INCLINATION":53.2177,"RA_OF_ASC_NODE":50.6114,"ARG_OF_PERICENTER":90.4428,"MEAN_ANOMALY":269.6733,"EPHEMERIS_TYPE":0,"CLASSIFICATION_TYPE":"U","NORAD_CAT_ID":52492,"ELEMENT_SET_NO":999,"REV_AT_EPOCH":21234,"BSTAR":4.339586e-6,"MEAN_MOTION_DOT":-2.19e-6,"MEAN_MOTION_DDOT":0},{"OBJECT_NAME":"LEMUR-2-TILLINFINITY","OBJECT_ID":"2025-061F","EPOCH":"2026-03-09T21:40:30.357696","MEAN_MOTION":15.139452,"ECCENTRICITY":0.00168906,"INCLINATION":97.5532,"RA_OF_ASC_NODE":45.5587,"ARG_OF_PERICENTER":226.702,"MEAN_ANOMALY":133.2804,"EPHEMERIS_TYPE":0,"CLASSIFICATION_TYPE":"U","NORAD_CAT_ID":63356,"ELEMENT_SET_NO":999,"REV_AT_EPOCH":5261,"BSTAR":0.00030453504,"MEAN_MOTION_DOT":5.472e-5,"MEAN_MOTION_DDOT":0}]
